{
  "type": "FeatureCollection",
  "name": "ntpc_boundary_debug",
  "features": [
    {
      "type": "Feature",
      "properties": {
        "layer": "roi"
      },
      "geometry": {
        "type": "Polygon",
        "coordinates": [
          [
            [
              121.42408053968363,
              24.9911231161192
            ],
            [
              121.42409912823673,
              24.99654000117463
            ],
            [
              121.41815533006533,
              24.99655682560603
            ],
            [
              121.4181370020143,
              24.991139936413862
            ],
            [
              121.42408053968363,
              24.9911231161192
            ]
          ]
        ]
      }
    },
    {
      "type": "Feature",
      "properties": {
        "layer": "anchor",
        "section_code": "1902",
        "parcel": "284"
      },
      "geometry": {
        "type": "Point",
        "coordinates": [
          121.42111799999999,
          24.993840000000002
        ]
      }
    },
    {
      "type": "Feature",
      "properties": {
        "layer": "barriers"
      },
      "geometry": {
        "type": "Polygon",
        "coordinates": [
          [
            [
              121.42173057695685,
              24.99336879689247
            ],
            [
              121.4217290981936,
              24.992935445916107
            ],
            [
              121.42168947403385,
              24.99293555821887
            ],
            [
              121.42169095265818,
              24.993368909197436
            ],
            [
              121.42044278712794,
              24.993372441402915
            ],
            [
              121.42044131287992,
              24.992939090354863
            ],
            [
              121.42040168871242,
              24.992939202314705
            ],
            [
              121.42040316282154,
              24.993372553364956
            ],
            [
              121.42012579266996,
              24.99337333680382
            ],
            [
              121.42012591543289,
              24.993409449391486
            ],
            [
              121.42040328566551,
              24.993408665951343
            ],
            [
              121.42040654111744,
              24.994365649426307
            ],
            [
              121.42012916873713,
              24.994366432900485
            ],
            [
              121.4201292915066,
              24.99440254548331
            ],
            [
              121.42040666396797,
              24.994401762007843
            ],
            [
              121.42040783105972,
              24.99474483152374
            ],
            [
              121.4204474558061,
              24.99474471955472
            ],
            [
              121.42044628860435,
              24.99440165004057
            ],
            [
              121.42169446452864,
              24.99439811767006
            ],
            [
              121.4216956351952,
              24.994741187129197
            ],
            [
              121.42173525993383,
              24.994741074817227
            ],
            [
              121.42173408915727,
              24.994398005359837
            ],
            [
              121.42211052311748,
              24.99439693788648
            ],
            [
              121.42211039976911,
              24.99436082531285
            ],
            [
              121.4217339659189,
              24.994361892784458
            ],
            [
              121.42173070018868,
              24.993404909472687
            ],
            [
              121.42210713112416,
              24.993403842047453
            ],
            [
              121.42210700778234,
              24.993367729468986
            ],
            [
              121.42173057695685,
              24.99336879689247
            ]
          ],
          [
            [
              121.4204429099835,
              24.993408553989113
            ],
            [
              121.42169107587841,
              24.993405021777846
            ],
            [
              121.42169434130182,
              24.99436200509449
            ],
            [
              121.42044616574225,
              24.994365537459213
            ],
            [
              121.4204429099835,
              24.993408553989113
            ]
          ]
        ]
      }
    },
    {
      "type": "Feature",
      "properties": {
        "layer": "candidate"
      },
      "geometry": {
        "type": "Polygon",
        "coordinates": [
          [
            [
              121.42044616574225,
              24.994365537459213
            ],
            [
              121.42169434130182,
              24.99436200509449
            ],
            [
              121.42169107587841,
              24.993405021777846
            ],
            [
              121.4204429099835,
              24.993408553989113
            ],
            [
              121.42044616574225,
              24.994365537459213
            ]
          ]
        ]
      }
    },
    {
      "type": "Feature",
      "properties": {
        "layer": "final",
        "zone": "第一種住宅區"
      },
      "geometry": {
        "type": "Polygon",
        "coordinates": [
          [
            [
              121.42047272037019,
              24.993435554449945
            ],
            [
              121.42047579205779,
              24.994338369040936
            ],
            [
              121.42166453042545,
              24.994335004888196
            ],
            [
              121.4216614500544,
              24.99343219043508
            ],
            [
              121.42047272037019,
              24.993435554449945
            ]
          ]
        ]
      }
    },
    {
      "type": "Feature",
      "properties": {
        "layer": "road",
        "relation": "north_of",
        "name": "樹人街"
      },
      "geometry": {
        "type": "LineString",
        "coordinates": [
          [
            121.42012585405139,
            24.99339139309767
          ],
          [
            121.42210706945323,
            24.993385785758242
          ]
        ]
      }
    },
    {
      "type": "Feature",
      "properties": {
        "layer": "road",
        "relation": "west_of",
        "name": "長壽街21巷"
      },
      "geometry": {
        "type": "LineString",
        "coordinates": [
          [
            121.42170928611377,
            24.992935502068814
          ],
          [
            121.42171544756454,
            24.99474113097453
          ]
        ]
      }
    },
    {
      "type": "Feature",
      "properties": {
        "layer": "road",
        "relation": "south_of",
        "name": "啟智街14巷"
      },
      "geometry": {
        "type": "LineString",
        "coordinates": [
          [
            121.42012923012184,
            24.99438448919192
          ],
          [
            121.42211046144327,
            24.994378881599687
          ]
        ]
      }
    },
    {
      "type": "Feature",
      "properties": {
        "layer": "road",
        "relation": "east_of",
        "name": "樹德街136巷"
      },
      "geometry": {
        "type": "LineString",
        "coordinates": [
          [
            121.42042150079618,
            24.992939146336102
          ],
          [
            121.42042764343294,
            24.994744775540546
          ]
        ]
      }
    },
    {
      "type": "Feature",
      "properties": {
        "layer": "cell",
        "index": 0,
        "area_m2": 343508.0
      },
      "geometry": {
        "type": "Polygon",
        "coordinates": [
          [
            [
              121.4181370020143,
              24.991139936413862
            ],
            [
              121.41815533006533,
              24.99655682560603
            ],
            [
              121.42409912823673,
              24.99654000117463
            ],
            [
              121.42408053968363,
              24.9911231161192
            ],
            [
              121.4181370020143,
              24.991139936413862
            ]
          ],
          [
            [
              121.42210700778234,
              24.993367729468986
            ],
            [
              121.42210713112416,
              24.993403842047453
            ],
            [
              121.42173070018868,
              24.993404909472687
            ],
            [
              121.4217339659189,
              24.994361892784458
            ],
            [
              121.42211039976911,
              24.99436082531285
            ],
            [
              121.42211052311748,
              24.99439693788648
            ],
            [
              121.42173408915727,
              24.994398005359837
            ],
            [
              121.42173525993383,
              24.994741074817227
            ],
            [
              121.4216956351952,
              24.994741187129197
            ],
            [
              121.42169446452864,
              24.99439811767006
            ],
            [
              121.42044628860435,
              24.99440165004057
            ],
            [
              121.4204474558061,
              24.99474471955472
            ],
            [
              121.42040783105972,
              24.99474483152374
            ],
            [
              121.42040666396797,
              24.994401762007843
            ],
            [
              121.4201292915066,
              24.99440254548331
            ],
            [
              121.42012916873713,
              24.994366432900485
            ],
            [
              121.42040654111744,
              24.994365649426307
            ],
            [
              121.42040328566551,
              24.993408665951343
            ],
            [
              121.42012591543289,
              24.993409449391486
            ],
            [
              121.42012579266996,
              24.99337333680382
            ],
            [
              121.42040316282154,
              24.993372553364956
            ],
            [
              121.42040168871242,
              24.992939202314705
            ],
            [
              121.42044131287992,
              24.992939090354863
            ],
            [
              121.42044278712794,
              24.993372441402915
            ],
            [
              121.42169095265818,
              24.993368909197436
            ],
            [
              121.42168947403385,
              24.99293555821887
            ],
            [
              121.4217290981936,
              24.992935445916107
            ],
            [
              121.42173057695685,
              24.99336879689247
            ],
            [
              121.42210700778234,
              24.993367729468986
            ]
          ]
        ]
      }
    },
    {
      "type": "Feature",
      "properties": {
        "layer": "cell",
        "index": 1,
        "area_m2": 13356.0
      },
      "geometry": {
        "type": "Polygon",
        "coordinates": [
          [
            [
              121.42044616574225,
              24.994365537459213
            ],
            [
              121.42169434130182,
              24.99436200509449
            ],
            [
              121.42169107587841,
              24.993405021777846
            ],
            [
              121.4204429099835,
              24.993408553989113
            ],
            [
              121.42044616574225,
              24.994365537459213
            ]
          ]
        ]
      }
    },
    {
      "type": "Feature",
      "properties": {
        "layer": "zoning",
        "index": 0,
        "zone": "第一種住宅區"
      },
      "geometry": {
        "type": "Polygon",
        "coordinates": [
          [
            [
              121.4216614500544,
              24.99343219043508
            ],
            [
              121.42166453042545,
              24.994335004888196
            ],
            [
              121.42047579205779,
              24.994338369040936
            ],
            [
              121.42047272037019,
              24.993435554449945
            ],
            [
              121.4216614500544,
              24.99343219043508
            ]
          ]
        ]
      }
    }
  ]
}