{
  "type": "FeatureCollection",
  "name": "ntpc_boundary_result",
  "crs": {
    "type": "name",
    "properties": {
      "name": "urn:ogc:def:crs:OGC:1.3:CRS84"
    }
  },
  "features": [
    {
      "type": "Feature",
      "properties": {
        "section_name": "樹德段",
        "section_code": "1902",
        "parcel": "284",
        "anchor_lat": 24.99384,
        "anchor_lon": 121.421118,
        "target_zone": "第一種住宅區",
        "boundary_roads": {
          "north_of": "樹人街",
          "west_of": "長壽街21巷",
          "south_of": "啟智街14巷",
          "east_of": "樹德街136巷"
        },
        "matched_roads": {
          "north_of": "樹人街",
          "west_of": "長壽街21巷",
          "south_of": "啟智街14巷",
          "east_of": "樹德街136巷"
        },
        "warnings": [],
        "road_source": "OpenStreetMap/Overpass or injected provider",
        "zoning_source": "New Taipei City Open Data or injected provider",
        "validation": {
          "valid": true,
          "area_m2": 12000.0,
          "geometry_type": "Polygon",
          "reasons": []
        },
        "zone_constraint": {
          "valid": true,
          "target_zone": "第一種住宅區",
          "result_area_m2": 12000.0,
          "inside_target_zone_area_m2": 12000.0,
          "outside_target_zone_area_m2": 0.0,
          "inside_ratio": 1.0
        }
      },
      "geometry": {
        "type": "Polygon",
        "coordinates": [
          [
            [
              121.42047272037019,
              24.993435554449945
            ],
            [
              121.42047579205779,
              24.994338369040936
            ],
            [
              121.42166453042545,
              24.994335004888196
            ],
            [
              121.4216614500544,
              24.99343219043508
            ],
            [
              121.42047272037019,
              24.993435554449945
            ]
          ]
        ]
      }
    }
  ]
}